02194   12.6   0.15 K13B4 301.04325  102.46101   47.17596    8.52799  0.0423962  0.27741549   2.3283535  0 MPO284165  1085  23 1940-2014 0.51 M-v 38h MPCLINUX   0000   (2194) Arpola             20140124
02195   12.2   0.15 K13B4 261.28738  295.30459  101.00246    4.57598  0.1052858  0.29756210   2.2220354  0 MPO270204  1023  25 1931-2013 0.54 M-v 38h MPCLINUX   0000   (2195) Tengstrom          20130827
02196   10.25  0.15 K13B4 193.88990  310.06957  212.23398   10.30672  0.0527013  0.15467257   3.4371133  0 MPO284165  1012  31 1906-2014 0.56 M-v 38h MPCLINUX   0000   (2196) Ellicott           20140120
02197   11.4   0.15 K13B4 175.04477   70.37369   56.39110    2.49767  0.1240781  0.17598504   3.1536891  0 MPO265968  1165  28 1955-2013 0.57 M-v 38h MPCLINUX   0000   (2197) Shanghai           20130717
02198   14.3   0.15 K13B4  29.42582  181.58096  223.24677    3.63407  0.1971484  0.23600932   2.5932832  0 MPO284165   750  20 1975-2014 0.56 M-v 38h MPCLINUX   0000   (2198) Ceplecha           20140126
02199   12.6   0.15 K13B4 164.04931  142.53314  146.97289    8.18940  0.2003162  0.29342055   2.2428955  0 MPO284165  1127  22 1941-2014 0.55 M-v 38h MPCLINUX   0000   (2199) Klet               20140126
02200   12.8   0.15 K13B4 244.56711  209.99919  345.60552    4.59409  0.1494812  0.26434228   2.4045010  0 MPO279537  1150  26 1955-2014 0.49 M-v 38h MPCLINUX   0000   (2200) Pasadena           20140109
02201   15.25  0.15 K13B4 185.17210   98.19420   75.00660    2.52341  0.7125729  0.30789137   2.1720561  0 MPO270204   579  22 1931-2013 0.58 M-v 3Eh MPCW       9803   (2201) Oljato             20130912
02202   17.1   0.15 K13B4 298.52693  217.96207  169.99341    8.73660  0.5115484  0.28413990   2.2914720  1 MPO263365   119   9 1972-2013 0.65 M-v 38h MPCLINUX   1804   (2202) Pele               20130512
02203   11.5   0.15 K13B4  77.35311  329.33681   50.28589    1.64550  0.1860433  0.17968454   3.1102520  0 MPO284165  1361  28 1935-2014 0.58 M-v 38h MPCLINUX   0000   (2203) van Rhijn          20140207
02204   12.0   0.15 K13B4  18.91879  283.27568  160.46447   20.56165  0.4078932  0.23664888   2.5886088  0 MPO284165  1013  23 1943-2014 0.53 M-v 38h MPCLINUX   0005   (2204) Lyyli              20140211
02205   12.0   0.15 K13B4 293.72005  104.24430  227.71384   10.48600  0.1228158  0.18924798   3.0045669  0 MPO265968   866  21 1968-2013 0.54 M-v 38h MPCLINUX   0000   (2205) Glinka             20130627
02206   11.3   0.15 K13B4  39.92673  164.75244   63.57566   10.92848  0.0512303  0.18825187   3.0151564  0 MPO265968   935  22 1968-2013 0.53 M-v 38h MPCLINUX   0000   (2206) Gabrova            20130629
02207    8.89  0.15 K13B4 307.34405  295.21085  159.14205    6.80803  0.0162195  0.08465179   5.1370283  0 MPO284165  1173  30 1977-2014 0.60 M-v 38h MPCLINUX   0009   (2207) Antenor            20140211
02208   10.96  0.15 K13B4  97.81515    5.83804   78.56522    5.40394  0.0323773  0.15088847   3.4943414  0 MPO284165  1031  25 1968-2014 0.53 M-v 38h MPCLINUX   0000   (2208) Pushkin            20140129
02209   11.0   0.15 K13B4  90.25302  262.20877  150.90490    2.61259  0.0681395  0.20536621   2.8452257  0 MPO284165  1320  33 1942-2014 0.49 M-v 38h MPCLINUX   0000   (2209) Tianjin            20140210
02210   14.0   0.15 K13B4 102.03557  215.99806  123.54234    2.93036  0.2276725  0.26419186   2.4054136  0 MPO284165  1049  22 1951-2014 0.54 M-v 38h MPCLINUX   0000   (2210) Lois               20140202
02211   12.1   0.15 K13B4  31.38507  200.73374  146.04766   17.30283  0.0825300  0.17375356   3.1806331  0 MPO279537   814  21 1951-2014 0.57 M-v 38h MPCLINUX   0000   (2211) Hanuman            20140102
02212   13.87  0.15 K13B4  23.50049  209.35802   27.55740   11.55390  0.8374147  0.31055465   2.1596201  0 MPO284165  1985  28 1978-2014 0.43 M-h 3Eh MPCLINUX   1803   (2212) Hephaistos         20140201
02213   13.3   0.15 K13B4   2.56057  221.95098  126.95217    5.33210  0.2261240  0.30240569   2.1982449  0 MPO279537  1202  22 1935-2013 0.57 M-v 38h MPCLINUX   0000   (2213) Meeus              20131230
02214   11.8   0.15 K13B4 161.24985  137.40521  187.46091   14.24922  0.2651950  0.17539181   3.1607963  0 MPO284165  1004  21 1960-2014 0.54 M-v 38h MPCLINUX   0000   (2214) Carol              20140209
02215   11.6   0.15 K13B4 190.20802  332.05453   71.18528   10.75123  0.2632084  0.21114568   2.7930664  0 MPO263365  1010  21 1942-2013 0.52 M-v 38h MPCLINUX   0000   (2215) Sichuan            20130513
02216   11.1   0.15 K13B4 315.52084  182.11517  155.75426   10.44981  0.1002678  0.18786887   3.0192530  0 MPO265968  1052  25 1938-2013 0.59 M-v 38h MPCLINUX   0000   (2216) Kerch              20130702
02217   11.3   0.15 K13B4 215.57650  173.57821  127.49566    2.24797  0.1664941  0.17591579   3.1545167  0 MPO284165  1295  33 1955-2014 0.52 M-v 38h MPCLINUX   0000   (2217) Eltigen            20140209
02218   11.1   0.15 K13B4 163.04799  322.50549   96.58447   14.94670  0.1633030  0.18565426   3.0432159  0 MPO263365   922  21 1931-2013 0.54 M-v 38h MPCLINUX   0000   (2218) Wotho              20130607
02219   11.0   0.15 K13B4 232.24932  294.83802   72.59065    7.58505  0.1196281  0.17620540   3.1510593  0 MPO265968  1017  29 1948-2013 0.53 M-v 38h MPCLINUX   0000   (2219) Mannucci           20130707
02220   12.2   0.15 K13B4 306.91450  278.51795   94.96958    2.58814  0.1583093  0.17566838   3.1574779  0 MPO265968  1152  25 1975-2013 0.55 M-v 38h MPCLINUX   0000   (2220) Hicks              20130628
02221   12.6   0.15 K13B4 349.57459   81.19943  245.99016   13.78493  0.1383432  0.23624802   2.5915361  0 MPO265968   679  18 1976-2013 0.49 M-v 38h MPCLINUX   0000   (2221) Chilton            20130712
02222   11.2   0.15 K13B4 173.36112  336.95938   94.91849    2.57394  0.1664062  0.17859179   3.1229262  0 MPO263365  1234  28 1933-2013 0.55 M-v 38h MPCLINUX   0000   (2222) Lermontov          20130530
02223    9.41  0.15 K13B4 125.13705   61.21804  220.91133   15.96416  0.0161112  0.08245777   5.2277523  0 MPO284165   859  27 1977-2014 0.54 M-v 38h MPCLINUX   0009   (2223) Sarpedon           20140210
02224   11.9   0.15 K13B4  16.81195  243.96195   51.26665    2.66653  0.0473562  0.20155540   2.8809768  0 MPO275458  1282  28 1951-2013 0.57 M-v 38h MPCLINUX   0000   (2224) Tucson             20130901
02225   11.9   0.15 K13B4 271.75718   11.98759   88.18043    3.26353  0.0325141  0.20470384   2.8513601  0 MPO284165  1179  25 1951-2014 0.54 M-v 38h MPCLINUX   0000   (2225) Serkowski          20140201
02226   11.6   0.15 K13B4 276.80793  330.61502   42.95423    2.54012  0.0802380  0.20272889   2.8698484  0 MPO265968  1235  28 1936-2013 0.55 M-v 38h MPCLINUX   0000   (2226) Cunitza            20130630
02227   13.3   0.15 K13B4  88.34821  253.86456  178.91465    4.94998  0.1744561  0.29486875   2.2355457  0 MPO284165  1064  23 1935-2014 0.55 M-v 38h MPCLINUX   0000   (2227) Otto Struve        20140120
02228   11.4   0.15 K13B4  93.11902  285.78137  140.41642    1.98881  0.1848128  0.17766146   3.1338189  0 MPO284165  1300  28 1952-2014 0.57 M-v 38h MPCLINUX   0000   (2228) Soyuz-Apollo       20140128
02229   12.9   0.15 K13B4  89.83635   31.67329  272.25283   12.74361  0.2653004  0.22301436   2.6930691  0 MPO284165   735  18 1977-2014 0.52 M-v 38h MPCLINUX   0000   (2229) Mezzarco           20140131
02230   11.8   0.15 K13B4  85.30849  255.09813  153.80458    2.56635  0.0651044  0.20404688   2.8574770  0 MPO284165  1311  31 1949-2014 0.55 M-v 38h MPCLINUX   0000   (2230) Yunnan             20140209
02231   12.3   0.15 K13B4   1.68031   24.02605  342.38189    8.23379  0.2483438  0.21854689   2.7296458  0 MPO284165  1089  20 1941-2014 0.54 M-v 38h MPCLINUX   0000   (2231) Durrell            20140210
02232   12.0   0.15 K13B4  80.13638   90.74318  218.56001    3.69028  0.1427192  0.22633690   2.6666487  0 MPO284165  1185  25 1930-2014 0.51 M-v 38h MPCLINUX   0000   (2232) Altaj              20140210
02233   12.3   0.15 K13B4   3.63875  159.60816  247.30922    3.41533  0.0809213  0.28661978   2.2782355  0 MPO284165  1296  28 1950-2014 0.52 M-v 38h MPCLINUX   0000   (2233) Kuznetsov          20140211
02234   12.2   0.15 K13B4  65.35525  272.05276    6.14956   25.22988  0.2007470  0.22226801   2.6990944  0 MPO284165   822  21 1972-2014 0.49 M-v 38h MPCLINUX   0000   (2234) Schmadel           20140121
02235   10.5   0.15 K13B4 220.18991  274.76022  205.08163   18.76245  0.2122892  0.17140479   3.2096234  0 MPO275458   956  27 1924-2013 0.59 M-v 38h MPCLINUX   0000   (2235) Vittore            20131018
02236   12.2   0.15 K13B4  54.83582  300.47389    8.33738   10.10954  0.2185585  0.27453534   2.3446096  0 MPO284165  1112  23 1933-2014 0.53 M-v 38h MPCLINUX   0000   (2236) Austrasia          20140211
02237   11.9   0.15 K13B4 127.02216  266.64600  118.48030    2.40058  0.2179264  0.17706038   3.1409074  0 MPO284165  1232  25 1938-2014 0.53 M-v 38h MPCLINUX   0000   (2237) Melnikov           20140116
02238   12.4   0.15 K13B4 264.33197  294.37325   33.46495    1.31150  0.1790127  0.18411208   3.0601862  0 MPO267716  1246  24 1972-2013 0.57 M-v 38h MPCLINUX   0000   (2238) Steshenko          20130726
02239   10.9   0.15 K13B4  30.47918    2.19210   20.38579   10.90988  0.0997689  0.17238137   3.1974898  0 MPO284165  1058  22 1938-2014 0.56 M-v 38h MPCLINUX   0000   (2239) Paracelsus         20140211
02240   11.8   0.15 K13B4  84.20413   24.55149   60.88054    0.84259  0.1546014  0.17644267   3.1482338  0 MPO279537  1244  25 1972-2014 0.53 M-v 38h MPCLINUX   0000   (2240) Tsai               20140107
02241    8.64  0.15 K13B4 181.35179  290.78892  267.99783   16.61294  0.0657649  0.08329224   5.1927774  0 MPO284165   877  26 1950-2014 0.55 M-v 38h MPCLINUX   0009   (2241) Alcathous          20140102
02242   13.2   0.15 K13B4 133.48059   95.84090  343.91035    2.53779  0.1177451  0.30040169   2.2080105  0 MPO263365  1123  24 1936-2013 0.53 M-v 38h MPCLINUX   0000   (2242) Balaton            20130611
